STARLINK-30831          
1 58153U 23166D   26068.72809141 -.00000291  00000+0  22829-5 0  9994
2 58153  53.1598 219.5439 0001113  90.4334 269.6794 15.30187181133181
KUIPER-00208            
1 67775U 26030M   26068.67231509  .00043852  00000+0  13883-2 0  9994
2 67775  51.8846 219.6993 0015525  57.3146 302.9333 15.32208734  5080
